      2.10          N: GNSS NAV DATA                        RINEX VERSION / TYPE
fic2rin                                 05/30/2020 00:17:26 PGM / RUN BY / DATE
                                                            END OF HEADER
21 20  5 29  8  0  0.0 4.743225872517e-06 4.888534022029e-12 0.000000000000e+00
    6.700000000000e+01-1.759375000000e+01 4.759126808163e-09-2.578566602163e-01
   -9.499490261078e-07 2.391118719243e-02 4.086643457413e-06 5.155143245697e+03
    4.608000000000e+05-4.302710294724e-07 2.998618321084e+00-5.587935447693e-08
    9.534108274450e-01 3.007812500000e+02-1.325471340299e+00-8.754650380614e-09
    2.314382117591e-10 1.000000000000e+00 2.107000000000e+03 0.000000000000e+00
    2.400000000000e+00 0.000000000000e+00-1.024454832077e-08 6.700000000000e+01
    4.536000000000e+05 4.000000000000e+00
26 20  5 29  8  0  0.0 2.153450623155e-04 7.048583938740e-12 0.000000000000e+00
    8.700000000000e+01 2.462500000000e+01 4.767341436049e-09-5.288025268621e-01
    1.156702637672e-06 4.735394613817e-03 8.191913366318e-06 5.153625213623e+03
    4.608000000000e+05 1.192092895508e-07 9.365564941258e-01 5.401670932770e-08
    9.467622290413e-01 2.157500000000e+02 2.309778709383e-01-8.197484315269e-09
   -5.018066165455e-10 1.000000000000e+00 2.107000000000e+03 0.000000000000e+00
    2.400000000000e+00 0.000000000000e+00 6.984919309616e-09 8.700000000000e+01
    4.536000000000e+05 4.000000000000e+00
23 20  5 29  8  0  0.0-1.102979294956e-04 3.183231456205e-12 0.000000000000e+00
    3.800000000000e+01-1.515625000000e+01 5.067353932774e-09 1.785918080714e+00
   -8.381903171539e-07 1.422609447036e-02 1.054443418980e-05 5.155136978149e+03
    4.608000000000e+05-3.166496753693e-07-1.147612535377e+00-1.396983861923e-07
    9.432134618838e-01 1.721562500000e+02-2.183264120228e+00-8.164982961457e-09
    3.821587755898e-10 1.000000000000e+00 2.107000000000e+03 0.000000000000e+00
    2.400000000000e+00 6.300000000000e+01-2.048909664154e-08 3.800000000000e+01
    4.536000000000e+05 4.000000000000e+00
25 20  5 29  8  0  0.0 8.080620318651e-06 3.410605131648e-12 0.000000000000e+00
    1.000000000000e+02 1.875000000000e+01 4.476615040414e-09 1.451696956319e-01
    1.065433025360e-06 9.151317877695e-03 8.407980203629e-06 5.153787899017e+03
    4.608000000000e+05-7.823109626770e-08 9.718843726223e-01 1.583248376846e-07
    9.656588237946e-01 2.190937500000e+02 9.388006163111e-01-8.136767500455e-09
   -4.668051585943e-10 1.000000000000e+00 2.107000000000e+03 0.000000000000e+00
    4.850000000000e+00 0.000000000000e+00 5.587935447693e-09 1.000000000000e+02
    4.536000000000e+05 4.000000000000e+00
32 20  5 29  8  0  0.0 2.898429520428e-04 7.275957614183e-12 0.000000000000e+00
    6.100000000000e+01 2.031250000000e+00 4.769484382455e-09-1.678891140326e+00
    1.247972249985e-07 3.990396275185e-03 9.620562195778e-06 5.153717018127e+03
    4.608000000000e+05 2.980232238770e-08-1.130654018884e+00-1.303851604462e-08
    9.565214403974e-01 1.909687500000e+02-2.439723886784e+00-7.984618305688e-09
    3.618007847406e-10 1.000000000000e+00 2.107000000000e+03 0.000000000000e+00
    3.400000000000e+00 0.000000000000e+00 4.656612873077e-10 6.100000000000e+01
    4.536000000000e+05 4.000000000000e+00
 4 20  5 29  8  0  0.0-9.554205462337e-05-4.888534022029e-12 0.000000000000e+00
    8.000000000000e+00-1.250000000000e-01 4.730911347161e-09 2.896607331802e+00
    8.195638656616e-08 7.457421161234e-04 1.028366386890e-05 5.153677692413e+03
    4.608000000000e+05-1.676380634308e-08-1.091114317314e+00 2.980232238770e-08
    9.596932633051e-01 1.838125000000e+02-2.601229024544e+00-7.951402636407e-09
    3.875161416028e-10 1.000000000000e+00 2.107000000000e+03 0.000000000000e+00
    2.400000000000e+00 0.000000000000e+00-4.190951585770e-09 8.000000000000e+00
    4.540800000000e+05 4.000000000000e+00
19 20  5 29  7 59 44.0-1.524309627712e-04 5.115907697473e-12 0.000000000000e+00
    1.000000000000e+01 6.734375000000e+01 3.819801967227e-09 2.023407389782e-01
    3.613531589508e-06 9.442233364098e-03 7.741153240204e-06 5.153690076828e+03
    4.607840000000e+05-2.011656761169e-07 2.121233634604e+00-1.545995473862e-07
    9.820393618355e-01 2.462187500000e+02 1.624806527897e+00-7.964974630307e-09
    7.714607058635e-11 1.000000000000e+00 2.107000000000e+03 0.000000000000e+00
    2.400000000000e+00 0.000000000000e+00-1.536682248116e-08 1.000000000000e+01
    4.547100000000e+05 4.000000000000e+00
29 20  5 29  7 59 44.0-1.154034398496e-04-8.867573342286e-12 0.000000000000e+00
    9.000000000000e+00 6.200000000000e+01 3.820873440430e-09-2.002669471245e+00
    3.229826688766e-06 1.493370276876e-03 6.832182407379e-06 5.153582242966e+03
    4.607840000000e+05 7.450580596924e-09 2.087349575791e+00 1.862645149231e-08
    9.854972642253e-01 2.610000000000e+02 1.936448863474e+00-7.839612265604e-09
    6.250260348431e-11 1.000000000000e+00 2.107000000000e+03 0.000000000000e+00
    2.400000000000e+00 0.000000000000e+00-9.778887033463e-09 9.000000000000e+00
    4.553100000000e+05 4.000000000000e+00
32 20  5 29  7 59 44.0 2.898434177041e-04 7.275957614183e-12 0.000000000000e+00
    2.300000000000e+01 2.031250000000e+00 4.769127224720e-09-1.681224992055e+00
    1.247972249985e-07 3.990395693108e-03 9.620562195778e-06 5.153717010498e+03
    4.607840000000e+05 2.980232238770e-08-1.130653875518e+00-1.303851604462e-08
    9.565214535636e-01 1.909687500000e+02-2.439723705382e+00-7.984618305688e-09
    3.614436270064e-10 1.000000000000e+00 2.107000000000e+03 0.000000000000e+00
    2.400000000000e+00 0.000000000000e+00 4.656612873077e-10 2.300000000000e+01
    4.562700000000e+05 4.000000000000e+00
 8 20  5 29  7 59 44.0-3.563892096281e-05-1.250555214938e-12 0.000000000000e+00
    1.700000000000e+01 7.687500000000e+01 4.063740699683e-09-2.232455992902e+00
    3.971159458160e-06 5.345916375518e-03 7.221475243568e-06 5.153677717209e+03
    4.607840000000e+05-3.166496753693e-08 2.002851092524e+00 4.097819328308e-08
    9.695152367726e-01 2.473437500000e+02-7.280991995685e-02-7.961403052965e-09
    1.250052069686e-10 1.000000000000e+00 2.107000000000e+03 0.000000000000e+00
    2.400000000000e+00 0.000000000000e+00 5.122274160385e-09 1.700000000000e+01
    4.563900000000e+05 4.000000000000e+00
 2 20  5 29  7 59 44.0-4.635644145310e-04-6.025402399246e-12 0.000000000000e+00
    3.100000000000e+01-7.625000000000e+00 4.451256841286e-09 2.022081348170e+00
   -6.239861249924e-07 1.971202099230e-02 2.933666110039e-06 5.153706239700e+03
    4.607840000000e+05 2.421438694000e-07 2.996436906882e+00-2.421438694000e-07
    9.594532701313e-01 3.175937500000e+02-1.627016606515e+00-8.091408468212e-09
    1.714357124141e-10 1.000000000000e+00 2.107000000000e+03 0.000000000000e+00
    2.400000000000e+00 0.000000000000e+00-1.769512891769e-08 3.100000000000e+01
    4.602000000000e+05 4.000000000000e+00
 2 20  5 29  9 59 44.0-4.636081866920e-04-6.025402399246e-12 0.000000000000e+00
    3.200000000000e+01-5.531250000000e+00 4.494115769389e-09 3.072224510277e+00
   -1.583248376846e-07 1.971211563796e-02 2.829357981682e-06 5.153706455231e+03
    4.679840000000e+05 1.974403858185e-07 2.996379446385e+00-7.264316082001e-08
    9.594544989825e-01 3.222812500000e+02-1.626999879510e+00-8.008190716145e-09
    1.353627812603e-10 1.000000000000e+00 2.107000000000e+03 0.000000000000e+00
    2.400000000000e+00 0.000000000000e+00-1.769512891769e-08 3.200000000000e+01
    4.608000000000e+05 4.000000000000e+00
 8 20  5 29  9 59 44.0-3.564823418856e-05-1.250555214938e-12 0.000000000000e+00
    1.800000000000e+01 6.321875000000e+01 4.120171621686e-09-1.182583467714e+00
    3.319233655930e-06 5.346778547391e-03 6.873160600662e-06 5.153674451828e+03
    4.679840000000e+05-6.146728992462e-08 2.002794439559e+00-1.229345798492e-07
    9.695158438836e-01 2.546562500000e+02-7.250560812675e-02-7.950688320939e-09
    0.000000000000e+00 1.000000000000e+00 2.107000000000e+03 0.000000000000e+00
    2.400000000000e+00 0.000000000000e+00 5.122274160385e-09 1.800000000000e+01
    4.608000000000e+05 4.000000000000e+00
29 20  5 29  9 59 44.0-1.154667697847e-04-8.867573342286e-12 0.000000000000e+00
    1.000000000000e+01 6.118750000000e+01 3.851946163305e-09-9.531836860065e-01
    3.175809979439e-06 1.493846066296e-03 7.396563887596e-06 5.153580232620e+03
    4.679840000000e+05-1.303851604462e-08 2.087293148115e+00 2.980232238770e-08
    9.854977074895e-01 2.495000000000e+02 1.937196348781e+00-7.837112161465e-09
    5.571660653459e-11 1.000000000000e+00 2.107000000000e+03 0.000000000000e+00
    2.400000000000e+00 0.000000000000e+00-9.778887033463e-09 1.000000000000e+01
    4.608000000000e+05 4.000000000000e+00
19 20  5 29  9 59 44.0-1.523941755295e-04 5.115907697473e-12 0.000000000000e+00
    1.100000000000e+01 6.856250000000e+01 3.963736534108e-09 1.252495661483e+00
    3.177672624588e-06 9.441941394471e-03 7.495284080505e-06 5.153689817429e+03
    4.679840000000e+05 1.117587089539e-08 2.121176393545e+00-2.048909664154e-07
    9.820393589097e-01 2.502500000000e+02 1.624818279517e+00-7.996761668650e-09
   -1.250052069686e-11 1.000000000000e+00 2.107000000000e+03 0.000000000000e+00
    2.400000000000e+00 0.000000000000e+00-1.536682248116e-08 1.100000000000e+01
    4.608000000000e+05 4.000000000000e+00
32 20  5 29  9 59 44.0 2.898960374296e-04 7.275957614183e-12 0.000000000000e+00
    6.500000000000e+01-6.375000000000e+00 4.709124725375e-09-6.307587766749e-01
   -1.899898052216e-07 3.990824567154e-03 9.508803486824e-06 5.153719482422e+03
    4.679840000000e+05 2.421438694000e-08-1.130711378439e+00 2.421438694000e-08
    9.565238761560e-01 1.954375000000e+02-2.440034831485e+00-8.016405344031e-09
    3.482287908412e-10 1.000000000000e+00 2.107000000000e+03 0.000000000000e+00
    2.400000000000e+00 0.000000000000e+00 4.656612873077e-10 6.500000000000e+01
    4.608000000000e+05 4.000000000000e+00
